OBJECT_NAME,OBJECT_ID,EPOCH,MEAN_MOTION,ECCENTRICITY,INCLINATION,RA_OF_ASC_NODE,ARG_OF_PERICENTER,MEAN_ANOMALY,EPHEMERIS_TYPE,CLASSIFICATION_TYPE,NORAD_CAT_ID,ELEMENT_SET_NO,REV_AT_EPOCH,BSTAR,MEAN_MOTION_DOT,MEAN_MOTION_DDOT
SL-16 R/B,1994-077B,2026-06-13T07:19:01.853184,14.15571784,.00027719,70.9806,151.3301,330.4138,29.6828,0,U,23405,999,62976,-.34088608E-4,-.115E-5,0
ARIANE 40+ R/B,1995-021B,2026-06-13T05:36:18.286272,14.39831291,.00061853,98.4411,234.3655,206.0166,221.8394,0,U,23561,999,63299,.86971364E-4,.229E-5,0
SL-16 R/B,1995-058B,2026-06-13T04:12:13.719456,14.15506164,.00135703,71.0216,339.7821,326.0020,34.0232,0,U,23705,999,58136,.12275928E-3,.193E-5,0
SL-16 R/B,1996-051B,2026-06-13T04:58:13.347552,14.12444584,.00151332,70.7639,333.0723,342.9024,17.1584,0,U,24298,999,53513,.89155389E-4,.116E-5,0
ORBVIEW 2 (SEASTAR),1997-037A,2026-06-13T04:28:34.916736,14.35551501,.00030981,98.8683,331.0948,124.0328,236.1152,0,U,24883,999,52217,.85652059E-4,.2E-5,0
SL-16 R/B,1998-043G,2026-06-13T07:02:38.730912,14.26068016,.00109397,98.8364,118.4193,96.4936,263.7489,0,U,25400,999,45261,.3222874E-4,.32E-6,0
SL-16 R/B,1998-045B,2026-06-12T22:15:20.911104,14.16204564,.00094995,71.0120,341.2886,247.0280,112.9841,0,U,25407,999,44058,-.66958893E-4,-.18E-5,0
ISS (ZARYA),1998-067A,2026-06-13T03:00:57.297024,15.49201403,.00048912,51.6335,320.1950,179.6545,180.4447,0,U,25544,999,57112,.15572625E-3,.82E-4,0
CZ-4B R/B,1999-025C,2026-06-13T02:48:23.698944,14.18282819,.00381906,98.6484,206.0578,71.0372,350.5031,0,U,25732,999,40169,.41651427E-4,.44E-6,0
OKEAN-O,1999-039A,2026-06-13T03:46:15.599136,14.80462582,.00017124,97.9317,223.0011,74.6639,285.4762,0,U,25860,999,44851,.76700846E-4,.534E-5,0
SL-16 R/B,1999-039B,2026-06-13T04:23:01.084416,14.81841513,.00136694,97.9838,223.0570,311.1799,48.8234,0,U,25861,999,45100,.61374593E-4,.431E-5,0
DELTA 2 R/B,1999-041E,2026-06-12T23:59:07.251072,14.12009136,.05008633,51.7659,280.5254,269.6365,84.7184,0,U,25876,999,37649,.16425559E-3,.786E-5,0
HELIOS 1B,1999-064A,2026-06-13T06:40:55.033536,14.87997081,.00024764,98.1618,69.3050,96.1993,263.9505,0,U,25977,999,69947,.1463043E-3,.1284E-4,0
TERRA,1999-068A,2026-06-13T06:05:11.159232,14.61100215,.000128,97.9457,213.9557,204.7308,230.1329,0,U,25994,999,40903,.82661885E-4,.362E-5,0
SL-16 R/B,2000-006B,2026-06-13T06:00:04.180896,14.15834777,.00153155,71.0025,256.9039,29.1773,331.0202,0,U,26070,999,36208,-.95804308E-4,-.236E-5,0
TITAN 4B R/B,2000-047B,2026-06-13T05:15:12.009600,15.10175553,.00456405,67.9876,131.7427,291.3054,68.3226,0,U,26474,999,40733,.19503149E-3,.3131E-4,0
ENVISAT,2002-009A,2026-06-13T07:10:31.850400,14.39063973,.00013415,98.3834,115.7041,89.6398,38.9425,0,U,27386,999,27292,.344057E-4,.63E-6,0
IDEFIX & ARIANE 42P R/B,2002-021B,2026-06-12T19:04:22.407456,14.31080250,.00105778,98.5944,101.3254,268.3624,91.6347,0,U,27422,999,25762,.88863831E-4,.19E-5,0
AQUA,2002-022A,2026-06-13T05:36:52.490304,14.62152668,.00012568,98.4276,133.4379,53.2719,71.0169,0,U,27424,999,28269,.15420159E-3,.726E-5,0
CZ-4B R/B,2002-024C,2026-06-13T03:28:13.867680,14.14563668,.00511559,98.8701,216.9910,111.4719,344.0731,0,U,27432,999,24273,.42095692E-4,.38E-6,0
MIDORI II (ADEOS-II),2002-056A,2026-06-12T20:49:52.207104,14.29347463,.00022119,98.7877,123.0911,82.5344,277.6089,0,U,27597,999,22389,.10785599E-3,.229E-5,0
H-2A R/B,2002-056E,2026-06-13T07:48:11.618208,14.33820530,.00690366,98.3311,121.1405,236.2204,246.1030,0,U,27601,999,22781,.70137658E-4,.158E-5,0
CZ-4B R/B,2003-049C,2026-06-13T05:49:49.899360,14.55097816,.00470796,98.6896,162.9324,300.9276,58.7296,0,U,28059,999,20049,.77202827E-4,.286E-5,0
CZ-2C R/B,2004-012C,2026-06-13T07:02:38.120928,15.78265044,.00089285,97.7090,239.5056,300.5169,59.5214,0,U,28222,999,21928,.55343875E-3,.95634E-3,0
SL-16 R/B,2004-021B,2026-06-13T01:26:22.910496,14.14610208,.0007417,71.0014,32.3517,259.5310,100.4977,0,U,28353,999,13632,-.11875237E-3,-.276E-5,0
CZ-4B R/B,2004-035C,2026-06-13T01:54:12.543840,15.30570097,.00303923,97.3369,197.1987,352.9492,7.1318,0,U,28415,999,19449,.2777184E-3,.8247E-4,0
CZ-2C R/B,2004-046B,2026-06-13T06:21:32.512896,14.27025716,.01383057,98.1949,73.2907,231.9455,126.9182,0,U,28480,999,12213,.36087784E-4,.55E-6,0
ARIANE 5 R/B,2004-049H,2026-06-13T05:21:38.284128,14.85444168,.00847562,98.2717,336.3233,42.1710,318.5983,0,U,28499,999,15997,.74344055E-4,.619E-5,0
CZ-2D R/B,2005-024B,2026-06-13T00:15:44.244864,15.69116023,.00040873,97.3482,183.2317,63.5187,296.6493,0,U,28738,999,15468,.46947466E-3,.54479E-3,0
ALOS (DAICHI),2006-002A,2026-06-13T03:25:29.330976,14.70042754,.00015995,98.1322,119.7226,58.1728,301.9634,0,U,28931,999,8750,.17119698E-3,.978E-5,0
