SL-16 R/B               
1 23405U 94077B   26164.30488256 -.00000115  00000+0 -34089-4 0  9992
2 23405  70.9806 151.3301 0002771 330.4138  29.6828 14.15571784629767
ARIANE 40+ R/B          
1 23561U 95021B   26164.23354498  .00000229  00000+0  86971-4 0  9998
2 23561  98.4411 234.3655 0006185 206.0166 221.8394 14.39831291632994
SL-16 R/B               
1 23705U 95058B   26164.17515879  .00000193  00000+0  12276-3 0  9999
2 23705  71.0216 339.7821 0013570 326.0020  34.0232 14.15506164581368
SL-16 R/B               
1 24298U 96051B   26164.20709893  .00000116  00000+0  89155-4 0  9992
2 24298  70.7639 333.0723 0015133 342.9024  17.1584 14.12444584535137
ORBVIEW 2 (SEASTAR)     
1 24883U 97037A   26164.18651524  .00000200  00000+0  85652-4 0  9993
2 24883  98.8683 331.0948 0003098 124.0328 236.1152 14.35551501522174
SL-16 R/B               
1 25400U 98043G   26164.29350383  .00000032  00000+0  32229-4 0  9993
2 25400  98.8364 118.4193 0010939  96.4936 263.7489 14.26068016452618
SL-16 R/B               
1 25407U 98045B   26163.92732536 -.00000180  00000+0 -66959-4 0  9998
2 25407  71.0120 341.2886 0009499 247.0280 112.9841 14.16204564440587
ISS (ZARYA)             
1 25544U 98067A   26164.12566316  .00008200  00000+0  15573-3 0  9992
2 25544  51.6335 320.1950 0004891 179.6545 180.4447 15.49201403571127
CZ-4B R/B               
1 25732U 99025C   26164.11694096  .00000044  00000+0  41651-4 0  9997
2 25732  98.6484 206.0578 0038190  71.0372 350.5031 14.18282819401690
OKEAN-O                 
1 25860U 99039A   26164.15712499  .00000534  00000+0  76701-4 0  9994
2 25860  97.9317 223.0011 0001712  74.6639 285.4762 14.80462582448510
SL-16 R/B               
1 25861U 99039B   26164.18265144  .00000431  00000+0  61375-4 0  9995
2 25861  97.9838 223.0570 0013669 311.1799  48.8234 14.81841513451008
DELTA 2 R/B             
1 25876U 99041E   26163.99938948  .00000786  00000+0  16426-3 0  9990
2 25876  51.7659 280.5254 0500863 269.6365  84.7184 14.12009136376496
HELIOS 1B               
1 25977U 99064A   26164.27841474  .00001284  00000+0  14630-3 0  9995
2 25977  98.1618  69.3050 0002476  96.1993 263.9505 14.87997081699473
TERRA                   
1 25994U 99068A   26164.25360138  .00000362  00000+0  82662-4 0  9996
2 25994  97.9457 213.9557 0001280 204.7308 230.1329 14.61100215409036
SL-16 R/B               
1 26070U 00006B   26164.25004839 -.00000236  00000+0 -95804-4 0  9993
2 26070  71.0025 256.9039 0015315  29.1773 331.0202 14.15834777362087
TITAN 4B R/B            
1 26474U 00047B   26164.21888900  .00003131  00000+0  19503-3 0  9997
2 26474  67.9876 131.7427 0045640 291.3054  68.3226 15.10175553407333
ENVISAT                 
1 27386U 02009A   26164.29897975  .00000063  00000+0  34406-4 0  9991
2 27386  98.3834 115.7041 0001341  89.6398  38.9425 14.39063973272922
IDEFIX & ARIANE 42P R/B 
1 27422U 02021B   26163.79470379  .00000190  00000+0  88864-4 0  9993
2 27422  98.5944 101.3254 0010577 268.3624  91.6347 14.31080250257621
AQUA                    
1 27424U 02022A   26164.23394086  .00000726  00000+0  15420-3 0  9998
2 27424  98.4276 133.4379 0001256  53.2719  71.0169 14.62152668282690
CZ-4B R/B               
1 27432U 02024C   26164.14460495  .00000038  00000+0  42096-4 0  9993
2 27432  98.8701 216.9910 0051155 111.4719 344.0731 14.14563668242736
MIDORI II (ADEOS-II)    
1 27597U 02056A   26163.86796536  .00000229  00000+0  10786-3 0  9998
2 27597  98.7877 123.0911 0002211  82.5344 277.6089 14.29347463223893
H-2A R/B                
1 27601U 02056E   26164.32513447  .00000158  00000+0  70138-4 0  9993
2 27601  98.3311 121.1405 0069036 236.2204 246.1030 14.33820530227815
CZ-4B R/B               
1 28059U 03049C   26164.24293865  .00000286  00000+0  77203-4 0  9996
2 28059  98.6896 162.9324 0047079 300.9276  58.7296 14.55097816200491
CZ-2C R/B               
1 28222U 04012C   26164.29349677  .00095634  00000+0  55344-3 0  9999
2 28222  97.7090 239.5056 0008928 300.5169  59.5214 15.78265044219281
SL-16 R/B               
1 28353U 04021B   26164.05998739 -.00000276  00000+0 -11875-3 0  9998
2 28353  71.0014  32.3517 0007417 259.5310 100.4977 14.14610208136321
CZ-4B R/B               
1 28415U 04035C   26164.07931185  .00008247  00000+0  27772-3 0  9993
2 28415  97.3369 197.1987 0030392 352.9492   7.1318 15.30570097194496
CZ-2C R/B               
1 28480U 04046B   26164.26495964  .00000055  00000+0  36088-4 0  9998
2 28480  98.1949  73.2907 0138305 231.9455 126.9182 14.27025716122134
ARIANE 5 R/B            
1 28499U 04049H   26164.22335977  .00000619  00000+0  74344-4 0  9997
2 28499  98.2717 336.3233 0084756  42.1710 318.5983 14.85444168159979
CZ-2D R/B               
1 28738U 05024B   26164.01092876  .00054479  00000+0  46947-3 0  9992
2 28738  97.3482 183.2317 0004087  63.5187 296.6493 15.69116023154684
ALOS (DAICHI)           
1 28931U 06002A   26164.14270059  .00000978  00000+0  17120-3 0  9995
2 28931  98.1322 119.7226 0001599  58.1728 301.9634 14.70042754 87503
